[{"OBJECT_NAME":"STARLINK-5757","OBJECT_ID":"2023-020M","EPOCH":"2026-03-09T22:00:01.999584","MEAN_MOTION":15.08369325,"ECCENTRICITY":0.00014936,"INCLINATION":42.9989,"RA_OF_ASC_NODE":337.1985,"ARG_OF_PERICENTER":308.378,"MEAN_ANOMALY":134.9479,"EPHEMERIS_TYPE":0,"CLASSIFICATION_TYPE":"U","NORAD_CAT_ID":55580,"ELEMENT_SET_NO":999,"REV_AT_EPOCH":573,"BSTAR":0.0028831401,"MEAN_MOTION_DOT":0.00045651,"MEAN_MOTION_DDOT":0},{"OBJECT_NAME":"FENGYUN 1C DEB","OBJECT_ID":"1999-025CMP","EPOCH":"2026-03-08T08:37:00.789888","MEAN_MOTION":14.96815474,"ECCENTRICITY":0.01497126,"INCLINATION":98.9176,"RA_OF_ASC_NODE":115.7276,"ARG_OF_PERICENTER":148.4975,"MEAN_ANOMALY":212.5316,"EPHEMERIS_TYPE":0,"CLASSIFICATION_TYPE":"U","NORAD_CAT_ID":31938,"ELEMENT_SET_NO":999,"REV_AT_EPOCH":409,"BSTAR":0.00073670691,"MEAN_MOTION_DOT":0.00010536,"MEAN_MOTION_DDOT":0}]
